H1 CPF 01  gfz 2022 01 02 01  5021 tandemx   
H2 1003001  6202 36605    2022 01 02 00 59 42 2022 01 07 00 00 42   120 1 1  0 0 0
H9
10 0 59583  12942.000000  0   -4451395.781  -3866435.973  -3570457.938
10 0 59583  13062.000000  0   -4889039.843  -3991018.425  -2769777.528
10 0 59583  13182.000000  0   -5242955.652  -4039091.491  -1920464.140
10 0 59583  13302.000000  0   -5505552.613  -4011281.912  -1037398.678
10 0 59583  13422.000000  0   -5670860.635  -3909668.760   -136086.719
10 0 59583  13542.000000  0   -5734668.601  -3737722.792    767618.958
10 0 59583  13662.000000  0   -5694628.867  -3500217.503   1657805.974
10 0 59583  13782.000000  0   -5550323.006  -3203112.144   2518792.738
10 0 59583  13902.000000  0   -5303288.140  -2853410.948   3335413.025
10 0 59583  14022.000000  0   -4957004.115  -2459003.337   4093290.336
10 0 59583  14142.000000  0   -4516840.678  -2028487.120   4779096.253
10 0 59583  14262.000000  0   -3989966.957  -1570980.909   5380785.015
10 0 59583  14382.000000  0   -3385227.992  -1095931.425   5887802.690
10 0 59583  14502.000000  0   -2712989.591   -612918.118   6291269.773
10 0 59583  14622.000000  0   -1984953.101   -131458.838   6584131.867
10 0 59583  14742.000000  0   -1213945.929    339177.198   6761275.359
10 0 59583  14862.000000  0    -413693.536    790145.862   6819610.752
10 0 59583  14982.000000  0     401425.039   1213193.308   6758123.029
10 0 59583  15102.000000  0    1216634.743   1600806.708   6577888.265
10 0 59583  15222.000000  0    2017031.634   1946347.981   6282055.485
10 0 59583  15342.000000  0    2787854.441   2244167.465   5875794.929
10 0 59583  15462.000000  0    3514758.008   2489697.353   5366213.950
10 0 59583  15582.000000  0    4184083.673   2679522.875   4762238.279
10 0 59583  15702.000000  0    4783119.656   2811430.372   4074461.429
10 0 59583  15822.000000  0    5300350.211   2884431.179   3314964.828
10 0 59583  15942.000000  0    5725686.780   2898758.776   2497104.709
10 0 59583  16062.000000  0    6050670.499   2855840.300   1635276.407
10 0 59583  16182.000000  0    6268648.206   2758244.333    744656.990
10 0 59583  16302.000000  0    6374912.917   2609603.585   -159069.865
10 0 59583  16422.000000  0    6366804.462   2414514.633  -1059999.548
10 0 59583  16542.000000  0    6243767.799   2178417.743  -1942293.984
10 0 59583  16662.000000  0    6007372.323   1907462.469  -2790466.562
10 0 59583  16782.000000  0    5661287.245   1608358.821  -3589660.500
10 0 59583  16902.000000  0    5211215.353   1288219.069  -4325911.632
10 0 59583  17022.000000  0    4664786.388    954394.537  -4986391.064
10 0 59583  17142.000000  0    4031415.634    614312.827  -5559622.199
10 0 59583  17262.000000  0    3322132.151    275318.103  -6035671.422
10 0 59583  17382.000000  0    2549378.985    -55481.946  -6406310.116
10 0 59583  17502.000000  0    1726790.497   -371359.974  -6665144.992
10 0 59583  17622.000000  0     868952.601   -666101.009  -6807718.099
10 0 59583  17742.000000  0      -8853.707   -934120.730  -6831576.284
10 0 59583  17862.000000  0    -890919.268  -1170567.478  -6736307.266
10 0 59583  17982.000000  0   -1761380.614  -1371407.653  -6523546.621
10 0 59583  18102.000000  0   -2604499.280  -1533493.303  -6196952.818
10 0 59583  18222.000000  0   -3404939.774  -1654610.556  -5762150.114
10 0 59583  18342.000000  0   -4148044.879  -1733509.332  -5226643.319
10 0 59583  18462.000000  0   -4820106.043  -1769913.191  -4599700.021
10 0 59583  18582.000000  0   -5408620.619  -1764508.500  -3892201.165
10 0 59583  18702.000000  0   -5902532.674  -1718913.481  -3116462.376
10 0 59583  18822.000000  0   -6292451.594  -1635627.113  -2286026.067
10 0 59583  18942.000000  0   -6570842.253  -1517958.323  -1415428.109
10 0 59583  19062.000000  0   -6732182.202  -1369937.314   -519942.721
10 0 59583  19182.000000  0   -6773081.165  -1196210.428    384690.067
10 0 59583  19302.000000  0   -6692358.582  -1001920.718   1282548.419
10 0 59583  19422.000000  0   -6491076.495   -792578.353   2157817.881
10 0 59583  19542.000000  0   -6172527.126   -573923.572   2995079.051
10 0 59583  19662.000000  0   -5742175.500   -351785.498   3779587.614
10 0 59583  19782.000000  0   -5207557.594   -131940.626   4497540.407
10 0 59583  19902.000000  0   -4578137.761     80024.498   5136320.412
10 0 59583  20022.000000  0   -3865131.500    278844.444   5684717.097
10 0 59583  20142.000000  0   -3081296.541    459696.314   6133120.621
10 0 59583  20262.000000  0   -2240695.897    618308.186   6473685.144
10 0 59583  20382.000000  0   -1358439.684    751052.960   6700460.576
10 0 59583  20502.000000  0    -450409.309    855026.624   6809490.146
10 0 59583  20622.000000  0     467028.943    928108.580   6798874.023
10 0 59583  20742.000000  0    1377317.837    969003.575   6668799.999
10 0 59583  20862.000000  0    2264006.838    977264.973   6421540.450
10 0 59583  20982.000000  0    3111048.584    953298.261   6061415.457
10 0 59583  21102.000000  0    3903091.059    898345.007   5594722.357
10 0 59583  21222.000000  0    4625758.690    814447.810   5029630.507
10 0 59583  21342.000000  0    5265918.328    704396.009   4376045.538
10 0 59583  21462.000000  0    5811927.386    571653.913   3645441.342
10 0 59583  21582.000000  0    6253855.880    420273.359   2850660.220
10 0 59583  21702.000000  0    6583675.889    254791.514   2005686.072
10 0 59583  21822.000000  0    6795417.073     80115.612   1125396.484
10 0 59583  21942.000000  0    6885282.048    -98600.570    225294.250
10 0 59583  22062.000000  0    6851718.745   -276087.037   -678773.473
10 0 59583  22182.000000  0    6695446.828   -447091.087  -1570903.661
10 0 59583  22302.000000  0    6419438.285   -606510.134  -2435425.525
10 0 59583  22422.000000  0    6028852.619   -749520.653  -3257182.092
10 0 59583  22542.000000  0    5530929.723   -871700.091  -4021799.397
10 0 59583  22662.000000  0    4934843.043   -969138.178  -4715937.890
10 0 59583  22782.000000  0    4251518.353  -1038535.032  -5327520.764
10 0 59583  22902.000000  0    3493423.261  -1077285.112  -5845937.074
10 0 59583  23022.000000  0    2674331.201  -1083545.328  -6262216.145
10 0 59583  23142.000000  0    1809066.521  -1056284.559  -6569171.415
10 0 59583  23262.000000  0     913235.516   -995314.868  -6761513.323
10 0 59583  23382.000000  0       2947.812   -901305.250  -6835931.339
10 0 59583  23502.000000  0    -905468.135   -775775.807  -6791144.382
10 0 59583  23622.000000  0   -1795750.780   -621073.801  -6627920.795
10 0 59583  23742.000000  0   -2651990.470   -440330.835  -6349066.185
10 0 59583  23862.000000  0   -3458906.917   -237402.767  -5959379.436
10 0 59583  23982.000000  0   -4202118.015    -16792.514  -5465580.401
10 0 59583  24102.000000  0   -4868397.486    216443.164  -4876204.734
10 0 59583  24222.000000  0   -5445913.972    456800.771  -4201468.243
10 0 59583  24342.000000  0   -5924450.347    698450.744  -3453101.283
10 0 59583  24462.000000  0   -6295596.050    935368.893  -2644152.947
10 0 59583  24582.000000  0   -6552907.720   1161475.521  -1788768.096
10 0 59583  24702.000000  0   -6692034.030   1370779.045   -901941.443
10 0 59583  24822.000000  0   -6710801.797   1557521.173       749.352
10 0 59583  24942.000000  0   -6609256.172   1716318.174    903424.529
10 0 59583  25062.000000  0   -6389657.577   1842296.739   1790188.847
10 0 59583  25182.000000  0   -6056434.426   1931220.260   2645420.692
10 0 59583  25302.000000  0   -5616091.618   1979601.603   3454056.396
10 0 59583  25422.000000  0   -5077076.864   1984798.967   4201862.800
10 0 59583  25542.000000  0   -4449609.549   1945093.240   4875691.217
10 0 59583  25662.000000  0   -3745477.816   1859745.245   5463708.670
10 0 59583  25782.000000  0   -2977809.178   1729031.902   5955603.776
10 0 59583  25902.000000  0   -2160817.869   1554260.736   6342764.696
10 0 59583  26022.000000  0   -1309534.396   1337761.412   6618424.026
10 0 59583  26142.000000  0    -439525.039   1082855.270   6777769.724
10 0 59583  26262.000000  0     433393.151    793804.129   6818022.880
10 0 59583  26382.000000  0    1293438.908    475738.563   6738482.913
10 0 59583  26502.000000  0    2125150.703    134567.287   6540538.856
10 0 59583  26622.000000  0    2913663.663   -223131.679   6227647.482
10 0 59583  26742.000000  0    3644976.539   -590236.608   5805277.561
10 0 59583  26862.000000  0    4306203.409   -959221.854   5280819.266
10 0 59583  26982.000000  0    4885805.424  -1322310.427   4663460.978
10 0 59583  27102.000000  0    5373799.412  -1671635.539   3964034.013
10 0 59583  27222.000000  0    5761938.845  -1999408.260   3194826.184
10 0 59583  27342.000000  0    6043862.258  -2298088.592   2369366.657
10 0 59583  27462.000000  0    6215204.940  -2560554.741   1502186.049
10 0 59583  27582.000000  0    6273672.347  -2780266.473    608556.367
10 0 59583  27702.000000  0    6219071.795  -2951419.142   -295785.705
10 0 59583  27822.000000  0    6053301.747  -3069083.644  -1194924.448
10 0 59583  27942.000000  0    5780297.835  -3129328.659  -2073055.059
10 0 59583  28062.000000  0    5405937.697  -3129321.840  -2914768.289
10 0 59583  28182.000000  0    4937909.304  -3067408.083  -3705325.609
10 0 59583  28302.000000  0    4385545.159  -2943163.641  -4430918.571
10 0 59583  28422.000000  0    3759627.241  -2757424.910  -5078908.467
10 0 59583  28542.000000  0    3072167.061  -2512290.501  -5638040.097
10 0 59583  28662.000000  0    2336169.450  -2211098.587  -6098626.857
10 0 59583  28782.000000  0    1565384.614  -1858381.053  -6452708.777
10 0 59583  28902.000000  0     774049.982  -1459792.908  -6694180.365
10 0 59583  29022.000000  0     -23370.848  -1022020.278  -6818884.808
10 0 59583  29142.000000  0    -812447.599   -552669.114  -6824677.239
10 0 59583  29262.000000  0   -1579038.087    -60135.859  -6711457.476
10 0 59583  29382.000000  0   -2309536.118    446539.294  -6481171.039
99
